     2              NAVIGATION DATA                         RINEX VERSION / TYPE
CCRINEXN V1.6.0 UX  CDDIS               26-DEC-08 02:51     PGM / RUN BY / DATE 
IGS BROADCAST EPHEMERIS FILE                                COMMENT             
    0.8382E-08 -0.1490E-07 -0.5960E-07  0.1192E-06          ION ALPHA           
    0.9421E+05 -0.1311E+06 -0.1311E+06  0.8520E+06          ION BETA            
    0.000000000000E+00 0.621724893790E-14   503808     1511 DELTA-UTC: A0,A1,T,W
    14                                                      LEAP SECONDS        
                                                            END OF HEADER       
 1 08 12 25  0  0  0.0-0.258012209088E-03-0.532054400537E-10 0.000000000000E+00
    0.114000000000E+03 0.540625000000E+01 0.540308220292E-08-0.162285427542E+01
    0.532716512680E-06 0.976002064999E-02 0.518932938576E-05 0.515374880409E+04
    0.345600000000E+06-0.111758708954E-07 0.124415724055E+01 0.284984707832E-06
    0.934916687307E+00 0.264937500000E+03-0.148836662182E+01-0.832748973052E-08
    0.560737642688E-10 0.000000000000E+00 0.151100000000E+04 0.000000000000E+00
    0.280000000000E+01 0.630000000000E+02-0.232830643654E-08 0.114000000000E+03
    0.343980000000E+06 0.400000000000E+01 0.000000000000E+00 0.000000000000E+00
 2 08 12 25  0  0  0.0 0.165172386915E-03-0.216004991671E-11 0.000000000000E+00
    0.680000000000E+02 0.132812500000E+02 0.494377735674E-08 0.110799929438E+01
    0.689178705215E-06 0.886097189505E-02 0.907480716705E-05 0.515359410286E+04
    0.345600000000E+06 0.182539224625E-06 0.234904648813E+01 0.838190317154E-07
    0.942017906713E+00 0.193343750000E+03 0.269001740243E+01-0.801961976364E-08
   -0.531093550750E-09 0.100000000000E+01 0.151100000000E+04 0.000000000000E+00
    0.200000000000E+01 0.000000000000E+00-0.172294676304E-07 0.680000000000E+02
    0.338418000000E+06 0.400000000000E+01 0.000000000000E+00 0.000000000000E+00
 3 08 12 25  0  0  0.0 0.329387839884E-03 0.522959453519E-11 0.000000000000E+00
    0.740000000000E+02 0.653125000000E+01 0.573523895042E-08 0.768438454626E+00
    0.389292836189E-06 0.115648574429E-01 0.531598925590E-05 0.515371258926E+04
    0.345600000000E+06-0.124797224999E-06 0.120265670357E+01 0.856816768646E-07
    0.925685267536E+00 0.259343750000E+03 0.886016796990E+00-0.862893045905E-08
   -0.357157727872E-11 0.100000000000E+01 0.151100000000E+04 0.000000000000E+00
    0.280000000000E+01 0.000000000000E+00-0.419095158577E-08 0.740000000000E+02
    0.338418000000E+06 0.400000000000E+01 0.000000000000E+00 0.000000000000E+00
 4 08 12 25  0  0  0.0-0.276076607406E-03-0.129602995003E-10 0.000000000000E+00
    0.700000000000E+01 0.164062500000E+02 0.487806017802E-08-0.232559102371E+01
    0.629574060440E-06 0.861224683467E-02 0.962428748608E-05 0.515364749145E+04
    0.345600000000E+06 0.931322574616E-08 0.236761545653E+01-0.137835741043E-06
    0.941286222384E+00 0.183500000000E+03 0.453648732725E+00-0.794640264701E-08
   -0.421446127996E-09 0.100000000000E+01 0.151100000000E+04 0.000000000000E+00
    0.200000000000E+01 0.000000000000E+00-0.605359673500E-08 0.700000000000E+01
    0.345600000000E+06 0.000000000000E+00 0.000000000000E+00 0.000000000000E+00
 5 08 12 25  0  0  0.0-0.426648650318E-03-0.729869498173E-10 0.000000000000E+00
    0.320000000000E+02-0.249062500000E+02 0.461447813294E-08-0.274350459130E+01
   -0.123307108879E-05 0.935622979887E-02 0.973977148533E-05 0.515364895058E+04
    0.345600000000E+06 0.614672899246E-07 0.171481337903E+00-0.298023223877E-07
    0.944961158911E+00 0.181468750000E+03 0.129619211458E+01-0.773353647787E-08
    0.530022081779E-09 0.100000000000E+01 0.151100000000E+04 0.000000000000E+00
    0.280000000000E+01 0.000000000000E+00-0.419095158577E-08 0.320000000000E+02
    0.345600000000E+06 0.000000000000E+00 0.000000000000E+00 0.000000000000E+00
 6 08 12 25  0  0  0.0 0.112839508802E-03-0.105728759081E-10 0.000000000000E+00
    0.690000000000E+02 0.262500000000E+01 0.548844290139E-08-0.296345428941E+01
    0.633299350738E-07 0.559652887750E-02 0.499561429024E-05 0.515370365334E+04
    0.345600000000E+06 0.117346644402E-06 0.126902443116E+01 0.484287738800E-07
    0.933170086005E+00 0.265687500000E+03-0.149778339623E+01-0.827213028172E-08
    0.675028117631E-10 0.100000000000E+01 0.151100000000E+04 0.000000000000E+00
    0.280000000000E+01 0.000000000000E+00-0.465661287308E-08 0.690000000000E+02
    0.343068000000E+06 0.400000000000E+01 0.000000000000E+00 0.000000000000E+00
 7 08 12 25  0  0  0.0 0.235312618315E-04 0.000000000000E+00 0.000000000000E+00
    0.960000000000E+02-0.129000000000E+03 0.415124423725E-08-0.684181743442E+00
   -0.679120421410E-05 0.231731974054E-02 0.685267150402E-05 0.515368718338E+04
    0.345600000000E+06 0.223517417908E-07-0.780881010303E+00-0.931322574615E-07
    0.965436686999E+00 0.250843750000E+03 0.290093414755E+01-0.786461296087E-08
   -0.137862887772E-09 0.100000000000E+01 0.151100000000E+04 0.000000000000E+00
    0.200000000000E+01 0.000000000000E+00-0.107102096081E-07 0.960000000000E+02
    0.339522000000E+06 0.400000000000E+01 0.000000000000E+00 0.000000000000E+00
 8 08 12 25  0  0  0.0-0.183536671102E-03-0.170530256582E-11 0.000000000000E+00
    0.970000000000E+02-0.125406250000E+03 0.367336738805E-08-0.136001559210E+01
   -0.674836337566E-05 0.105545711704E-01 0.737234950066E-05 0.515370175552E+04
    0.345600000000E+06-0.670552253723E-07-0.723705211010E+00-0.145286321640E-06
    0.986652527707E+00 0.250562500000E+03 0.296415751121E+01-0.762210294880E-08
    0.346443013166E-10 0.100000000000E+01 0.151100000000E+04 0.000000000000E+00
    0.280000000000E+01 0.000000000000E+00-0.419095158577E-08 0.970000000000E+02
    0.344646000000E+06 0.400000000000E+01 0.000000000000E+00 0.000000000000E+00
 9 08 12 25  0  0  0.0 0.314512290060E-04 0.193267624127E-11 0.000000000000E+00
    0.900000000000E+02-0.115156250000E+03 0.404052544696E-08-0.163605332067E+01
   -0.573694705963E-05 0.201124256710E-01 0.710412859917E-05 0.515365839195E+04
    0.345600000000E+06 0.257045030594E-06-0.816011525058E+00 0.460073351860E-06
    0.974385036511E+00 0.244812500000E+03 0.145414097895E+01-0.772389315973E-08
   -0.181078971237E-09 0.100000000000E+01 0.151100000000E+04 0.000000000000E+00
    0.200000000000E+01 0.000000000000E+00-0.558793544769E-08 0.900000000000E+02
    0.340642000000E+06 0.400000000000E+01 0.000000000000E+00 0.000000000000E+00
11 08 12 25  0  0  0.0 0.123959034681E-04-0.102318153950E-11 0.000000000000E+00
    0.680000000000E+02-0.187500000000E+00 0.627168983414E-08-0.840715407194E+00
    0.298023223877E-07 0.908061163500E-02 0.789947807789E-05 0.515365748215E+04
    0.345600000000E+06 0.156462192535E-06 0.215671006512E+01 0.912696123123E-07
    0.889833801881E+00 0.187562500000E+03 0.666456362365E+00-0.875679351253E-08
   -0.542522582414E-09 0.100000000000E+01 0.151100000000E+04 0.000000000000E+00
    0.200000000000E+01 0.000000000000E+00-0.121071934700E-07 0.680000000000E+02
    0.343368000000E+06 0.400000000000E+01 0.000000000000E+00 0.000000000000E+00
12 08 12 25  0  0  0.0-0.331239774823E-03 0.295585778076E-11 0.000000000000E+00
    0.760000000000E+02-0.158437500000E+02 0.428517843432E-08-0.474580312358E+00
   -0.761821866035E-06 0.305936625227E-02 0.959075987339E-05 0.515375335312E+04
    0.345600000000E+06-0.912696123123E-07 0.269679181472E+00-0.726431608200E-07
    0.965923259404E+00 0.199125000000E+03-0.835185260864E+00-0.773496466877E-08
    0.514664311169E-09 0.100000000000E+01 0.151100000000E+04 0.000000000000E+00
    0.200000000000E+01 0.000000000000E+00-0.116415321827E-07 0.760000000000E+02
    0.345600000000E+06 0.000000000000E+00 0.000000000000E+00 0.000000000000E+00
13 08 12 25  0  0  0.0 0.282369554043E-03 0.147792889038E-11 0.000000000000E+00
    0.760000000000E+02-0.806250000000E+01 0.387230415415E-08 0.181559965133E+01
   -0.610947608948E-06 0.363785447553E-02 0.461935997009E-06 0.515377436447E+04
    0.345600000000E+06-0.372529029846E-08-0.177552917383E+01-0.409781932831E-07
    0.995091980684E+00 0.386531250000E+03 0.151307192591E+01-0.801247660896E-08
   -0.717887045734E-10 0.000000000000E+00 0.151100000000E+04 0.000000000000E+00
    0.200000000000E+01 0.000000000000E+00-0.111758708954E-07 0.760000000000E+02
    0.345570000000E+06 0.000000000000E+00 0.000000000000E+00 0.000000000000E+00
14 08 12 25  0  0  0.0-0.177455134690E-03 0.500222085975E-11 0.000000000000E+00
    0.660000000000E+02-0.162812500000E+02 0.409374194936E-08 0.136680051545E+01
   -0.867992639542E-06 0.446662458125E-02 0.808387994766E-06 0.515355529976E+04
    0.345600000000E+06-0.137835741043E-06-0.179408723910E+01 0.242143869400E-07
    0.988707880795E+00 0.379906250000E+03-0.210690470019E+01-0.818498379457E-08
   -0.785747015231E-10 0.100000000000E+01 0.151100000000E+04 0.000000000000E+00
    0.200000000000E+01 0.000000000000E+00-0.931322574616E-08 0.660000000000E+02
    0.338418000000E+06 0.400000000000E+01 0.000000000000E+00 0.000000000000E+00
15 08 12 25  0  0  0.0-0.231836922467E-03-0.591171556152E-11 0.000000000000E+00
    0.570000000000E+02 0.271875000000E+01 0.477984195675E-08 0.199732328248E+01
    0.257045030594E-06 0.131064502057E-02 0.176951289177E-06 0.515375095177E+04
    0.345600000000E+06 0.540167093277E-07-0.184176548310E+01-0.521540641785E-07
    0.956923274735E+00 0.370250000000E+03-0.855094524085E+00-0.844963767561E-08
   -0.628597612185E-10 0.100000000000E+01 0.151100000000E+04 0.000000000000E+00
    0.200000000000E+01 0.000000000000E+00-0.977888703346E-08 0.570000000000E+02
    0.338418000000E+06 0.400000000000E+01 0.000000000000E+00 0.000000000000E+00
